start=new Date('2022-04-24T00:00:00.000Z').valueOf();
sats=[{"TLE_LINE2":"2 46328  53.0553 233.6496 0001916  40.9027 319.2106 15.06377224 91153","MEAN_ELEMENT_THEORY":"SGP4","OBJECT_NAME":"STARLINK-1686","APOAPSIS":"548.610","COUNTRY_CODE":"US","GP_ID":"201879573","ECCENTRICITY":"0.00019160","SITE":"AFETR","CENTER_NAME":"EARTH","MEAN_MOTION_DDOT":"0.0000000000000","BSTAR":"-0.00004224300000","CLASSIFICATION_TYPE":"U","DECAY_DATE":null,"RA_OF_ASC_NODE":"233.6496","LAUNCH_DATE":"2020-09-03","NORAD_CAT_ID":"46328","OBJECT_ID":"2020-062D","SEMIMAJOR_AXIS":"6925.418","REV_AT_EPOCH":"9115","TLE_LINE1":"1 46328U 20062D   22113.61039289 -.00000910  00000-0 -42243-4 0  9991","REF_FRAME":"TEME","EPOCH":"2022-04-23T14:38:57.945696","MEAN_MOTION":"15.06377224","TIME_SYSTEM":"UTC","INCLINATION":"53.0553","MEAN_MOTION_DOT":"-0.00000910","MEAN_ANOMALY":"319.2106","ARG_OF_PERICENTER":"40.9027","PERIOD":"95.594","RCS_SIZE":"LARGE","PERIAPSIS":"545.956","EPHEMERIS_TYPE":"0","OBJECT_TYPE":"PAYLOAD","ELEMENT_SET_NO":"999","FILE":"3412883"},{"CENTER_NAME":"EARTH","SITE":"AFETR","CLASSIFICATION_TYPE":"U","BSTAR":"-0.00028322000000","RA_OF_ASC_NODE":"234.6854","DECAY_DATE":null,"MEAN_MOTION_DDOT":"0.0000000000000","OBJECT_ID":"2020-062E","NORAD_CAT_ID":"46329","LAUNCH_DATE":"2020-09-03","REV_AT_EPOCH":"9111","SEMIMAJOR_AXIS":"6925.389","APOAPSIS":"548.515","COUNTRY_CODE":"US","TLE_LINE2":"2 46329  53.0549 234.6854 0001821  17.3420 342.7631 15.06386794 91110","MEAN_ELEMENT_THEORY":"SGP4","OBJECT_NAME":"STARLINK-1695","GP_ID":"201878822","ECCENTRICITY":"0.00018210","ARG_OF_PERICENTER":"17.3420","MEAN_ANOMALY":"342.7631","MEAN_MOTION_DOT":"-0.00004496","RCS_SIZE":"LARGE","PERIOD":"95.593","PERIAPSIS":"545.993","EPHEMERIS_TYPE":"0","FILE":"3412883","ELEMENT_SET_NO":"999","OBJECT_TYPE":"PAYLOAD","REF_FRAME":"TEME","TLE_LINE1":"1 46329U 20062E   22113.37816256 -.00004496  00000-0 -28322-3 0  9996","EPOCH":"2022-04-23T09:04:33.245184","MEAN_MOTION":"15.06386794","INCLINATION":"53.0549","TIME_SYSTEM":"UTC"},{"LAUNCH_DATE":"2020-09-03","NORAD_CAT_ID":"46330","OBJECT_ID":"2020-062F","SEMIMAJOR_AXIS":"6925.355","REV_AT_EPOCH":"9114","SITE":"AFETR","CENTER_NAME":"EARTH","MEAN_MOTION_DDOT":"0.0000000000000","CLASSIFICATION_TYPE":"U","BSTAR":"-0.00007877500000","DECAY_DATE":null,"RA_OF_ASC_NODE":"234.1324","GP_ID":"201879072","ECCENTRICITY":"0.00016790","TLE_LINE2":"2 46330  53.0534 234.1324 0001679  62.3890 297.7270 15.06397767 91148","OBJECT_NAME":"STARLINK-1710","MEAN_ELEMENT_THEORY":"SGP4","APOAPSIS":"548.383","COUNTRY_CODE":"US","PERIAPSIS":"546.058","EPHEMERIS_TYPE":"0","OBJECT_TYPE":"PAYLOAD","ELEMENT_SET_NO":"999","FILE":"3412883","MEAN_MOTION_DOT":"-0.00001455","MEAN_ANOMALY":"297.7270","ARG_OF_PERICENTER":"62.3890","PERIOD":"95.592","RCS_SIZE":"LARGE","MEAN_MOTION":"15.06397767","TIME_SYSTEM":"UTC","INCLINATION":"53.0534","TLE_LINE1":"1 46330U 20062F   22113.49979955 -.00001455  00000-0 -78775-4 0  9997","REF_FRAME":"TEME","EPOCH":"2022-04-23T11:59:42.681120"},{"GP_ID":"201879323","ECCENTRICITY":"0.00015140","COUNTRY_CODE":"US","APOAPSIS":"548.280","OBJECT_NAME":"STARLINK-1719","MEAN_ELEMENT_THEORY":"SGP4","TLE_LINE2":"2 46331  53.0541 253.9847 0001514  73.8372 286.2783 15.06394190 90863","OBJECT_ID":"2020-062G","NORAD_CAT_ID":"46331","LAUNCH_DATE":"2020-09-03","REV_AT_EPOCH":"9086","SEMIMAJOR_AXIS":"6925.366","CENTER_NAME":"EARTH","SITE":"AFETR","DECAY_DATE":null,"RA_OF_ASC_NODE":"253.9847","BSTAR":"0.00000427890000","CLASSIFICATION_TYPE":"U","MEAN_MOTION_DDOT":"0.0000000000000","MEAN_MOTION":"15.06394190","INCLINATION":"53.0541","TIME_SYSTEM":"UTC","REF_FRAME":"TEME","TLE_LINE1":"1 46331U 20062G   22113.53482056 -.00000218  00000-0  42789-5 0  9996","EPOCH":"2022-04-23T12:50:08.496384","EPHEMERIS_TYPE":"0","PERIAPSIS":"546.183","FILE":"3412883","ELEMENT_SET_NO":"999","OBJECT_TYPE":"PAYLOAD","ARG_OF_PERICENTER":"73.8372","MEAN_MOTION_DOT":"-0.00000218","MEAN_ANOMALY":"286.2783","RCS_SIZE":"LARGE","PERIOD":"95.593"},{"EPHEMERIS_TYPE":"0","PERIAPSIS":"546.113","OBJECT_TYPE":"PAYLOAD","ELEMENT_SET_NO":"999","FILE":"3412883","MEAN_MOTION_DOT":"-0.00001574","MEAN_ANOMALY":"301.5358","ARG_OF_PERICENTER":"58.5789","PERIOD":"95.593","RCS_SIZE":"LARGE","MEAN_MOTION":"15.06394262","TIME_SYSTEM":"UTC","INCLINATION":"53.0552","TLE_LINE1":"1 46332U 20062H   22113.54587212 -.00001574  00000-0 -86814-4 0  9991","REF_FRAME":"TEME","EPOCH":"2022-04-23T13:06:03.351168","LAUNCH_DATE":"2020-09-03","NORAD_CAT_ID":"46332","OBJECT_ID":"2020-062H","SEMIMAJOR_AXIS":"6925.366","REV_AT_EPOCH":"9086","SITE":"AFETR","CENTER_NAME":"EARTH","MEAN_MOTION_DDOT":"0.0000000000000","DECAY_DATE":null,"RA_OF_ASC_NODE":"253.9406","BSTAR":"-0.00008681400000","CLASSIFICATION_TYPE":"U","ECCENTRICITY":"0.00016150","GP_ID":"201880073","MEAN_ELEMENT_THEORY":"SGP4","OBJECT_NAME":"STARLINK-1721","TLE_LINE2":"2 46332  53.0552 253.9406 0001615  58.5789 301.5358 15.06394262 90860","COUNTRY_CODE":"US","APOAPSIS":"548.350"},{"REF_FRAME":"TEME","TLE_LINE1":"1 46333U 20062J   22113.56061577 -.00001741  00000-0 -98045-4 0  9990","EPOCH":"2022-04-23T13:27:17.202528","MEAN_MOTION":"15.06394411","INCLINATION":"53.0544","TIME_SYSTEM":"UTC","ARG_OF_PERICENTER":"66.9517","MEAN_MOTION_DOT":"-0.00001741","MEAN_ANOMALY":"293.1637","RCS_SIZE":"LARGE","PERIOD":"95.592","EPHEMERIS_TYPE":"0","PERIAPSIS":"546.146","ELEMENT_SET_NO":"999","FILE":"3412883","OBJECT_TYPE":"PAYLOAD","APOAPSIS":"548.315","COUNTRY_CODE":"US","OBJECT_NAME":"STARLINK-1723","MEAN_ELEMENT_THEORY":"SGP4","TLE_LINE2":"2 46333  53.0544 253.8771 0001566  66.9517 293.1637 15.06394411 90865","GP_ID":"201878323","ECCENTRICITY":"0.00015660","CENTER_NAME":"EARTH","SITE":"AFETR","DECAY_DATE":null,"RA_OF_ASC_NODE":"253.8771","BSTAR":"-0.00009804500000","CLASSIFICATION_TYPE":"U","MEAN_MOTION_DDOT":"0.0000000000000","OBJECT_ID":"2020-062J","LAUNCH_DATE":"2020-09-03","NORAD_CAT_ID":"46333","REV_AT_EPOCH":"9086","SEMIMAJOR_AXIS":"6925.366"},{"PERIOD":"95.592","RCS_SIZE":"LARGE","MEAN_ANOMALY":"304.5210","MEAN_MOTION_DOT":"0.00000205","ARG_OF_PERICENTER":"55.5962","OBJECT_TYPE":"PAYLOAD","FILE":"3412963","ELEMENT_SET_NO":"999","EPHEMERIS_TYPE":"0","PERIAPSIS":"545.888","EPOCH":"2022-04-23T19:13:35.413248","TLE_LINE1":"1 46334U 20062K   22113.80110432  .00000205  00000-0  32670-4 0  9997","REF_FRAME":"TEME","TIME_SYSTEM":"UTC","INCLINATION":"53.0538","MEAN_MOTION":"15.06394978","MEAN_MOTION_DDOT":"0.0000000000000","DECAY_DATE":null,"RA_OF_ASC_NODE":"232.7791","BSTAR":"0.00003267000000","CLASSIFICATION_TYPE":"U","SITE":"AFETR","CENTER_NAME":"EARTH","SEMIMAJOR_AXIS":"6925.364","REV_AT_EPOCH":"9136","NORAD_CAT_ID":"46334","LAUNCH_DATE":"2020-09-03","OBJECT_ID":"2020-062K","OBJECT_NAME":"STARLINK-1725","MEAN_ELEMENT_THEORY":"SGP4","TLE_LINE2":"2 46334  53.0538 232.7791 0001936  55.5962 304.5210 15.06394978 91364","COUNTRY_CODE":"US","APOAPSIS":"548.570","ECCENTRICITY":"0.00019360","GP_ID":"201886429"},{"OBJECT_NAME":"STARLINK-1727","MEAN_ELEMENT_THEORY":"SGP4","TLE_LINE2":"2 46335  53.0551 252.8501 0001684  59.6122 300.5033 15.06400403 91084","APOAPSIS":"548.379","COUNTRY_CODE":"US","ECCENTRICITY":"0.00016840","GP_ID":"201886474","SITE":"AFETR","CENTER_NAME":"EARTH","MEAN_MOTION_DDOT":"0.0000000000000","RA_OF_ASC_NODE":"252.8501","DECAY_DATE":null,"CLASSIFICATION_TYPE":"U","BSTAR":"0.00006373300000","NORAD_CAT_ID":"46335","LAUNCH_DATE":"2020-09-03","OBJECT_ID":"2020-062L","SEMIMAJOR_AXIS":"6925.347","REV_AT_EPOCH":"9108","TLE_LINE1":"1 46335U 20062L   22113.78914223  .00000668  00000-0  63733-4 0  9992","REF_FRAME":"TEME","EPOCH":"2022-04-23T18:56:21.888672","MEAN_MOTION":"15.06400403","TIME_SYSTEM":"UTC","INCLINATION":"53.0551","MEAN_MOTION_DOT":"0.00000668","MEAN_ANOMALY":"300.5033","ARG_OF_PERICENTER":"59.6122","PERIOD":"95.592","RCS_SIZE":"LARGE","EPHEMERIS_TYPE":"0","PERIAPSIS":"546.046","OBJECT_TYPE":"PAYLOAD","FILE":"3412965","ELEMENT_SET_NO":"999"},{"OBJECT_ID":"2020-062M","NORAD_CAT_ID":"46336","LAUNCH_DATE":"2020-09-03","REV_AT_EPOCH":"9112","SEMIMAJOR_AXIS":"6925.402","CENTER_NAME":"EARTH","SITE":"AFETR","BSTAR":"-0.00014107000000","CLASSIFICATION_TYPE":"U","DECAY_DATE":null,"RA_OF_ASC_NODE":"234.3780","MEAN_MOTION_DDOT":"0.0000000000000","ECCENTRICITY":"0.00016830","GP_ID":"201879574","COUNTRY_CODE":"US","APOAPSIS":"548.433","TLE_LINE2":"2 46336  53.0514 234.3780 0001683  20.5886 339.5171 15.06382554 91127","OBJECT_NAME":"STARLINK-1738","MEAN_ELEMENT_THEORY":"SGP4","PERIAPSIS":"546.101","EPHEMERIS_TYPE":"0","ELEMENT_SET_NO":"999","FILE":"3412883","OBJECT_TYPE":"PAYLOAD","ARG_OF_PERICENTER":"20.5886","MEAN_ANOMALY":"339.5171","MEAN_MOTION_DOT":"-0.00002381","RCS_SIZE":"LARGE","PERIOD":"95.593","MEAN_MOTION":"15.06382554","INCLINATION":"53.0514","TIME_SYSTEM":"UTC","REF_FRAME":"TEME","TLE_LINE1":"1 46336U 20062M   22113.44821096 -.00002381  00000-0 -14107-3 0  9997","EPOCH":"2022-04-23T10:45:25.426944"},{"ARG_OF_PERICENTER":"49.1925","MEAN_MOTION_DOT":"0.00000930","MEAN_ANOMALY":"310.9231","RCS_SIZE":"LARGE","PERIOD":"95.592","EPHEMERIS_TYPE":"0","PERIAPSIS":"545.891","FILE":"3412964","ELEMENT_SET_NO":"999","OBJECT_TYPE":"PAYLOAD","REF_FRAME":"TEME","TLE_LINE1":"1 46337U 20062N   22113.79467754  .00000930  00000-0  81349-4 0  9992","EPOCH":"2022-04-23T19:04:20.139456","MEAN_MOTION":"15.06395365","INCLINATION":"53.0561","TIME_SYSTEM":"UTC","CENTER_NAME":"EARTH","SITE":"AFETR","RA_OF_ASC_NODE":"232.8165","DECAY_DATE":null,"BSTAR":"0.00008134900000","CLASSIFICATION_TYPE":"U","MEAN_MOTION_DDOT":"0.0000000000000","OBJECT_ID":"2020-062N","NORAD_CAT_ID":"46337","LAUNCH_DATE":"2020-09-03","REV_AT_EPOCH":"9136","SEMIMAJOR_AXIS":"6925.363","COUNTRY_CODE":"US","APOAPSIS":"548.564","OBJECT_NAME":"STARLINK-1750","MEAN_ELEMENT_THEORY":"SGP4","TLE_LINE2":"2 46337  53.0561 232.8165 0001930  49.1925 310.9231 15.06395365 91366","ECCENTRICITY":"0.00019300","GP_ID":"201886720"}];
